OBJECT_NAME,OBJECT_ID,EPOCH,MEAN_MOTION,ECCENTRICITY,INCLINATION,RA_OF_ASC_NODE,ARG_OF_PERICENTER,MEAN_ANOMALY,EPHEMERIS_TYPE,CLASSIFICATION_TYPE,NORAD_CAT_ID,ELEMENT_SET_NO,REV_AT_EPOCH,BSTAR,MEAN_MOTION_DOT,MEAN_MOTION_DDOT
SKYSAT-C1,2016-040C,2026-07-16T01:35:22.164864,15.36756692,.00002422,96.9548,227.2267,270.9948,89.1270,0,U,41601,999,56230,.14048183E-3,.497E-4,0
LAPAN-A3,2016-040E,2026-07-16T07:11:23.235072,15.33281484,.00082387,97.1505,192.4942,271.3073,88.7226,0,U,41603,999,55927,.5556484E-4,.1713E-4,0
GAOFEN-3,2016-049A,2026-07-16T07:00:36.514656,14.42219250,.00017632,98.4010,204.6393,83.9170,276.2221,0,U,41727,999,52284,.51663253E-4,.127E-5,0
SKYSAT-C4,2016-058B,2026-07-16T00:20:15.519264,15.49453903,.00034733,96.9159,217.5942,115.8842,244.2768,0,U,41771,999,54993,.1854536E-3,.10111E-3,0
SKYSAT-C5,2016-058C,2026-07-16T01:25:36.323616,15.33726186,.00026394,97.0452,236.4040,158.1858,201.9499,0,U,41772,999,54817,.12489111E-3,.3999E-4,0
SKYSAT-C2,2016-058D,2026-07-16T07:46:44.352480,15.42695154,.00012639,97.0156,218.3332,348.1707,11.9512,0,U,41773,999,54954,.1521296E-3,.6554E-4,0
SKYSAT-C3,2016-058E,2026-07-16T01:42:57.046176,15.53733168,.00025586,96.8989,226.8279,131.8662,228.2811,0,U,41774,999,55059,.23539668E-3,.14988E-3,0
ALSAT-1B,2016-059C,2026-07-16T07:52:45.316992,14.72295701,.00103538,97.7749,204.8347,126.4289,233.7875,0,U,41785,999,52486,.65021067E-4,.364E-5,0
PATHFINDER 1,2016-059E,2026-07-15T23:24:02.741472,14.67693642,.00298378,97.8177,194.9535,113.3409,247.0941,0,U,41787,999,52393,.54440694E-4,.265E-5,0
SCATSAT 1,2016-059H,2026-07-16T03:48:14.270400,14.79588524,.00552794,98.1178,261.2218,153.4933,206.9124,0,U,41790,999,10587,.88808298E-4,.625E-5,0
GOKTURK 1A,2016-073A,2026-07-16T05:58:19.000992,14.62793981,.00014065,98.1218,91.4633,80.3121,279.8240,0,U,41875,999,51307,.59599209E-4,.257E-5,0
RESOURCESAT-2A,2016-074A,2026-07-16T06:42:28.755072,14.21607882,.00023634,98.7525,270.5446,26.1579,333.9717,0,U,41877,999,49843,-.63699188E-4,-.184E-5,0
CARTOSAT-2D,2017-008A,2026-07-16T06:29:04.972416,15.19289941,.00061285,97.4092,256.0302,135.0747,225.0985,0,U,41948,999,52199,.11150288E-3,.2286E-4,0
SENTINEL-2B,2017-013A,2026-07-16T07:09:43.392960,14.30815310,.0001208,98.5690,271.6607,90.4508,269.6814,0,U,42063,999,48880,.17592097E-4,.2E-7,0
CARTOSAT-2E,2017-036C,2026-07-16T06:54:41.873760,15.19261119,.00033747,97.4262,256.6084,184.3635,175.7571,0,U,42767,999,50256,.12997477E-3,.2672E-4,0
FORMOSAT-5,2017-049A,2026-07-16T05:22:56.632512,14.50907979,.00112681,98.2246,271.8878,0.6783,359.4426,0,U,42920,999,47088,.21000864E-4,.39E-6,0
SENTINEL-5P,2017-064A,2026-07-16T05:48:34.424640,14.19523382,.00011455,98.7929,139.1678,93.2479,266.8828,0,U,42969,999,45368,.25543993E-4,.1E-6,0
SKYSAT-C11,2017-068A,2026-07-15T22:44:37.353984,15.59351130,.0001161,97.4381,347.0668,158.9178,201.2126,0,U,42987,999,48772,.23691E-3,.18575E-3,0
SKYSAT-C10,2017-068B,2026-07-15T21:53:46.494816,15.35125075,.0001465,97.4542,334.0538,110.9376,249.2024,0,U,42988,999,48676,.17869E-3,.6009E-4,0
SKYSAT-C9,2017-068C,2026-07-15T22:09:36.659808,15.42224961,.0008579,97.4461,335.2786,42.5748,317.6163,0,U,42989,999,48718,.17585E-3,.7471E-4,0
SKYSAT-C8,2017-068D,2026-07-15T21:42:38.583072,15.37499510,.0001213,97.4558,333.9566,103.3850,256.7530,0,U,42990,999,48672,.1604E-3,.5815E-4,0
SKYSAT-C7,2017-068E,2026-07-15T21:34:43.893696,15.37449994,.0005668,97.4569,334.9426,18.9667,341.1787,0,U,42991,999,48678,.15897E-3,.5755E-4,0
SKYSAT-C6,2017-068F,2026-07-15T21:51:05.776992,15.34176907,.0005082,97.4607,334.8045,87.6386,272.5438,0,U,42992,999,48672,.15543E-3,.5061E-4,0
CARTOSAT-2F,2018-004A,2026-07-16T07:41:38.188896,15.19177031,.00023742,97.4770,256.6684,129.7701,230.3743,0,U,43111,999,47175,.92075493E-4,.1868E-4,0
GAOFEN-1 02,2018-031A,2026-07-16T07:18:23.167584,14.76472417,.00014849,98.0516,259.7480,279.9327,80.1714,0,U,43259,999,44699,.28080337E-4,.144E-5,0
GAOFEN-1 03,2018-031B,2026-07-16T06:46:51.479328,14.76463238,.00023251,98.0503,259.5811,12.7027,347.4240,0,U,43260,999,44698,.50402664E-4,.299E-5,0
GAOFEN-1 04,2018-031D,2026-07-16T07:49:27.048000,14.76470849,.00012429,98.0517,259.8191,54.6219,305.5106,0,U,43262,999,44698,.23580249E-4,.113E-5,0
SENTINEL-3B,2018-039A,2026-07-16T05:21:47.464128,14.26736511,.00011661,98.6236,264.3371,119.9543,240.1753,0,U,43437,999,42826,.36498009E-4,.45E-6,0
GAOFEN-5 01,2018-043A,2026-07-16T04:13:44.560416,14.60623635,.00020428,98.4591,169.3747,29.9986,330.1330,0,U,43461,999,43592,.35134787E-4,.122E-5,0
GAOFEN-6,2018-048A,2026-07-16T06:44:25.554048,14.76385178,.00121072,98.0960,259.9853,78.5698,281.6870,0,U,43484,999,43768,.82901214E-4,.524E-5,0
