SKYSAT-C1               
1 41601U 16040C   26197.06622876  .00004970  00000+0  14048-3 0  9994
2 41601  96.9548 227.2267 0000242 270.9948  89.1270 15.36756692562303
LAPAN-A3                
1 41603U 16040E   26197.29957448  .00001713  00000+0  55565-4 0  9999
2 41603  97.1505 192.4942 0008238 271.3073  88.7226 15.33281484559278
GAOFEN-3                
1 41727U 16049A   26197.29208929  .00000127  00000+0  51663-4 0  9991
2 41727  98.4010 204.6393 0001763  83.9170 276.2221 14.42219250522840
SKYSAT-C4               
1 41771U 16058B   26197.01406851  .00010111  00000+0  18545-3 0  9999
2 41771  96.9159 217.5942 0003473 115.8842 244.2768 15.49453903549933
SKYSAT-C5               
1 41772U 16058C   26197.05944819  .00003999  00000+0  12489-3 0  9992
2 41772  97.0452 236.4040 0002639 158.1858 201.9499 15.33726186548176
SKYSAT-C2               
1 41773U 16058D   26197.32412445  .00006554  00000+0  15213-3 0  9996
2 41773  97.0156 218.3332 0001263 348.1707  11.9512 15.42695154549544
SKYSAT-C3               
1 41774U 16058E   26197.07149359  .00014988  00000+0  23540-3 0  9992
2 41774  96.8989 226.8279 0002558 131.8662 228.2811 15.53733168550597
ALSAT-1B                
1 41785U 16059C   26197.32830228  .00000364  00000+0  65021-4 0  9999
2 41785  97.7749 204.8347 0010353 126.4289 233.7875 14.72295701524860
PATHFINDER 1            
1 41787U 16059E   26196.97503173  .00000265  00000+0  54441-4 0  9991
2 41787  97.8177 194.9535 0029837 113.3409 247.0941 14.67693642523931
SCATSAT 1               
1 41790U 16059H   26197.15849850  .00000625  00000+0  88808-4 0  9995
2 41790  98.1178 261.2218 0055279 153.4933 206.9124 14.79588524105873
GOKTURK 1A              
1 41875U 16073A   26197.24883103  .00000257  00000+0  59599-4 0  9990
2 41875  98.1218  91.4633 0001406  80.3121 279.8240 14.62793981513076
RESOURCESAT-2A          
1 41877U 16074A   26197.27949948 -.00000184  00000+0 -63699-4 0  9993
2 41877  98.7525 270.5446 0002363  26.1579 333.9717 14.21607882498437
CARTOSAT-2D             
1 41948U 17008A   26197.27019644  .00002286  00000+0  11150-3 0  9998
2 41948  97.4092 256.0302 0006128 135.0747 225.0985 15.19289941521997
SENTINEL-2B             
1 42063U 17013A   26197.29841890  .00000002  00000+0  17592-4 0  9992
2 42063  98.5690 271.6607 0001208  90.4508 269.6814 14.30815310488800
CARTOSAT-2E             
1 42767U 17036C   26197.28798465  .00002672  00000+0  12997-3 0  9994
2 42767  97.4262 256.6084 0003374 184.3635 175.7571 15.19261119502563
FORMOSAT-5              
1 42920U 17049A   26197.22426658  .00000039  00000+0  21001-4 0  9997
2 42920  98.2246 271.8878 0011268   0.6783 359.4426 14.50907979470884
SENTINEL-5P             
1 42969U 17064A   26197.24206510  .00000010  00000+0  25544-4 0  9997
2 42969  98.7929 139.1678 0001145  93.2479 266.8828 14.19523382453680
SKYSAT-C11              
1 42987U 17068A   26196.94765456  .00018575  00000+0  23691-3 0  9991
2 42987  97.4381 347.0668 0001161 158.9178 201.2126 15.59351130487721
SKYSAT-C10              
1 42988U 17068B   26196.91234369  .00006009  00000+0  17869-3 0  9992
2 42988  97.4542 334.0538 0001465 110.9376 249.2024 15.35125075486761
SKYSAT-C9               
1 42989U 17068C   26196.92334097  .00007471  00000+0  17585-3 0  9992
2 42989  97.4461 335.2786 0008579  42.5748 317.6163 15.42224961487189
SKYSAT-C8               
1 42990U 17068D   26196.90461323  .00005815  00000+0  16040-3 0  9990
2 42990  97.4558 333.9566 0001213 103.3850 256.7530 15.37499510486725
SKYSAT-C7               
1 42991U 17068E   26196.89911914  .00005755  00000+0  15897-3 0  9997
2 42991  97.4569 334.9426 0005668  18.9667 341.1787 15.37449994486789
SKYSAT-C6               
1 42992U 17068F   26196.91048353  .00005061  00000+0  15543-3 0  9997
2 42992  97.4607 334.8045 0005082  87.6386 272.5438 15.34176907486722
CARTOSAT-2F             
1 43111U 18004A   26197.32058089  .00001868  00000+0  92075-4 0  9992
2 43111  97.4770 256.6684 0002374 129.7701 230.3743 15.19177031471757
GAOFEN-1 02             
1 43259U 18031A   26197.30443481  .00000144  00000+0  28080-4 0  9998
2 43259  98.0516 259.7480 0001484 279.9327  80.1714 14.76472417446991
GAOFEN-1 03             
1 43260U 18031B   26197.28254027  .00000299  00000+0  50403-4 0  9998
2 43260  98.0503 259.5811 0002325  12.7027 347.4240 14.76463238446983
GAOFEN-1 04             
1 43262U 18031D   26197.32600750  .00000113  00000+0  23580-4 0  9994
2 43262  98.0517 259.8191 0001242  54.6219 305.5106 14.76470849446981
SENTINEL-3B             
1 43437U 18039A   26197.22346602  .00000045  00000+0  36498-4 0  9994
2 43437  98.6236 264.3371 0001166 119.9543 240.1753 14.26736511428269
GAOFEN-5 01             
1 43461U 18043A   26197.17621019  .00000122  00000+0  35135-4 0  9991
2 43461  98.4591 169.3747 0002042  29.9986 330.1330 14.60623635435926
GAOFEN-6                
1 43484U 18048A   26197.28085132  .00000524  00000+0  82901-4 0  9992
2 43484  98.0960 259.9853 0012107  78.5698 281.6870 14.76385178437682
